SL-3 R/B                
1 13403U 82079B   26054.49112779  .00008009  00000+0  32143-3 0  9996
2 13403  81.1463 209.8382 0024537 212.9030 147.0677 15.24560259375530
SL-14 R/B               
1 13553U 82092B   26054.30578566  .00000528  00000+0  56587-4 0  9994
2 13553  82.5712 154.8500 0020062 353.3494  60.1686 14.86649988326795
SL-3 R/B                
1 13819U 83010B   26053.93974528  .00018365  00000+0  37605-3 0  9993
2 13819  81.1047  20.3214 0018672  97.4470 262.8897 15.45768351355664
SL-3 R/B                
1 14208U 83075B   26054.44060912  .00013545  00000+0  36182-3 0  9991
2 14208  97.6143  58.4839 0019692 282.1615  77.7423 15.38028354327962
COSMOS 1536             
1 14699U 84013A   26054.46932617  .00008415  00000+0  34928-3 0  9996
2 14699  82.5449 121.9834 0013433 338.3790  21.6878 15.23616674270459
SL-14 R/B               
1 14820U 84027B   26054.28286626  .00000429  00000+0  46196-4 0  9997
2 14820  82.5381 258.5286 0018602  25.6935 334.5201 14.85960156245494
SL-8 R/B                
1 15483U 85006B   26054.41571888  .00000141  00000+0  55376-4 0  9994
2 15483  74.0446 287.4157 0019030 208.2391 324.6909 14.37774986151972
SL-12 R/B(2)            
1 15772U 85042D   26054.47461737  .00000066  00000+0  51286-4 0  9994
2 15772  71.1075 117.7629 0034003 151.2700 220.2197 14.21978386112370
SL-14 R/B               
1 15945U 85069B   26054.40664175  .00000559  00000+0  60429-4 0  9995
2 15945  82.5256  38.3643 0017388 237.2320 122.7222 14.86414438170714
SL-16 R/B               
1 16182U 85097B   26054.29128226  .00000271  00000+0  15986-3 0  9997
2 16182  71.0033 170.8642 0009733 276.1143 104.8256 14.16596099 85197
SL-14 R/B               
1 16496U 86006B   26054.32014294  .00000585  00000+0  59646-4 0  9999
2 16496  82.5241 273.2644 0075647 321.2940  38.2869 14.86794508147075
COSMOS 1743             
1 16719U 86034A   26054.51190111  .00039774  00000+0  53997-3 0  9996
2 16719  82.5308  88.6991 0003487   7.4064 352.7242 15.57444428178045
