CCSDS_OMM_VERS = 2.0
CREATION_DATE  = 
ORIGINATOR     = 

OBJECT_NAME    = SL-3 R/B
OBJECT_ID      = 1982-079B
CENTER_NAME    = EARTH
REF_FRAME      = TEME
TIME_SYSTEM    = UTC
MEAN_ELEMENT_THEORY = SGP/SGP4

EPOCH          = 2026-02-23T11:47:13.441056
MEAN_MOTION    = 15.24560259
ECCENTRICITY   = .0024537
INCLINATION    = 81.1463
RA_OF_ASC_NODE = 209.8382
ARG_OF_PERICENTER = 212.9030
MEAN_ANOMALY   = 147.0677

EPHEMERIS_TYPE = 0
CLASSIFICATION_TYPE = U
NORAD_CAT_ID   = 13403
ELEMENT_SET_NO = 999
REV_AT_EPOCH   = 37553
BSTAR          = .32143E-3
MEAN_MOTION_DOT = .8009E-4
MEAN_MOTION_DDOT = 0

CCSDS_OMM_VERS = 2.0
CREATION_DATE  = 
ORIGINATOR     = 

OBJECT_NAME    = SL-14 R/B
OBJECT_ID      = 1982-092B
CENTER_NAME    = EARTH
REF_FRAME      = TEME
TIME_SYSTEM    = UTC
MEAN_ELEMENT_THEORY = SGP/SGP4

EPOCH          = 2026-02-23T07:20:19.881024
MEAN_MOTION    = 14.86649988
ECCENTRICITY   = .0020062
INCLINATION    = 82.5712
RA_OF_ASC_NODE = 154.8500
ARG_OF_PERICENTER = 353.3494
MEAN_ANOMALY   = 60.1686

EPHEMERIS_TYPE = 0
CLASSIFICATION_TYPE = U
NORAD_CAT_ID   = 13553
ELEMENT_SET_NO = 999
REV_AT_EPOCH   = 32679
BSTAR          = .56587E-4
MEAN_MOTION_DOT = .528E-5
MEAN_MOTION_DDOT = 0

CCSDS_OMM_VERS = 2.0
CREATION_DATE  = 
ORIGINATOR     = 

OBJECT_NAME    = SL-3 R/B
OBJECT_ID      = 1983-010B
CENTER_NAME    = EARTH
REF_FRAME      = TEME
TIME_SYSTEM    = UTC
MEAN_ELEMENT_THEORY = SGP/SGP4

EPOCH          = 2026-02-22T22:33:13.992192
MEAN_MOTION    = 15.45768351
ECCENTRICITY   = .0018672
INCLINATION    = 81.1047
RA_OF_ASC_NODE = 20.3214
ARG_OF_PERICENTER = 97.4470
MEAN_ANOMALY   = 262.8897

EPHEMERIS_TYPE = 0
CLASSIFICATION_TYPE = U
NORAD_CAT_ID   = 13819
ELEMENT_SET_NO = 999
REV_AT_EPOCH   = 35566
BSTAR          = .37605E-3
MEAN_MOTION_DOT = .18365E-3
MEAN_MOTION_DDOT = 0

CCSDS_OMM_VERS = 2.0
CREATION_DATE  = 
ORIGINATOR     = 

OBJECT_NAME    = SL-3 R/B
OBJECT_ID      = 1983-075B
CENTER_NAME    = EARTH
REF_FRAME      = TEME
TIME_SYSTEM    = UTC
MEAN_ELEMENT_THEORY = SGP/SGP4

EPOCH          = 2026-02-23T10:34:28.627968
MEAN_MOTION    = 15.38028354
ECCENTRICITY   = .0019692
INCLINATION    = 97.6143
RA_OF_ASC_NODE = 58.4839
ARG_OF_PERICENTER = 282.1615
MEAN_ANOMALY   = 77.7423

EPHEMERIS_TYPE = 0
CLASSIFICATION_TYPE = U
NORAD_CAT_ID   = 14208
ELEMENT_SET_NO = 999
REV_AT_EPOCH   = 32796
BSTAR          = .36182E-3
MEAN_MOTION_DOT = .13545E-3
MEAN_MOTION_DDOT = 0

CCSDS_OMM_VERS = 2.0
CREATION_DATE  = 
ORIGINATOR     = 

OBJECT_NAME    = COSMOS 1536
OBJECT_ID      = 1984-013A
CENTER_NAME    = EARTH
REF_FRAME      = TEME
TIME_SYSTEM    = UTC
MEAN_ELEMENT_THEORY = SGP/SGP4

EPOCH          = 2026-02-23T11:15:49.781088
MEAN_MOTION    = 15.23616674
ECCENTRICITY   = .0013433
INCLINATION    = 82.5449
RA_OF_ASC_NODE = 121.9834
ARG_OF_PERICENTER = 338.3790
MEAN_ANOMALY   = 21.6878

EPHEMERIS_TYPE = 0
CLASSIFICATION_TYPE = U
NORAD_CAT_ID   = 14699
ELEMENT_SET_NO = 999
REV_AT_EPOCH   = 27045
BSTAR          = .34928E-3
MEAN_MOTION_DOT = .8415E-4
MEAN_MOTION_DDOT = 0

CCSDS_OMM_VERS = 2.0
CREATION_DATE  = 
ORIGINATOR     = 

OBJECT_NAME    = SL-14 R/B
OBJECT_ID      = 1984-027B
CENTER_NAME    = EARTH
REF_FRAME      = TEME
TIME_SYSTEM    = UTC
MEAN_ELEMENT_THEORY = SGP/SGP4

EPOCH          = 2026-02-23T06:47:19.644864
MEAN_MOTION    = 14.85960156
ECCENTRICITY   = .0018602
INCLINATION    = 82.5381
RA_OF_ASC_NODE = 258.5286
ARG_OF_PERICENTER = 25.6935
MEAN_ANOMALY   = 334.5201

EPHEMERIS_TYPE = 0
CLASSIFICATION_TYPE = U
NORAD_CAT_ID   = 14820
ELEMENT_SET_NO = 999
REV_AT_EPOCH   = 24549
BSTAR          = .46196E-4
MEAN_MOTION_DOT = .429E-5
MEAN_MOTION_DDOT = 0

CCSDS_OMM_VERS = 2.0
CREATION_DATE  = 
ORIGINATOR     = 

OBJECT_NAME    = SL-8 R/B
OBJECT_ID      = 1985-006B
CENTER_NAME    = EARTH
REF_FRAME      = TEME
TIME_SYSTEM    = UTC
MEAN_ELEMENT_THEORY = SGP/SGP4

EPOCH          = 2026-02-23T09:58:38.111232
MEAN_MOTION    = 14.37774986
ECCENTRICITY   = .001903
INCLINATION    = 74.0446
RA_OF_ASC_NODE = 287.4157
ARG_OF_PERICENTER = 208.2391
MEAN_ANOMALY   = 324.6909

EPHEMERIS_TYPE = 0
CLASSIFICATION_TYPE = U
NORAD_CAT_ID   = 15483
ELEMENT_SET_NO = 999
REV_AT_EPOCH   = 15197
BSTAR          = .55376E-4
MEAN_MOTION_DOT = .141E-5
MEAN_MOTION_DDOT = 0

CCSDS_OMM_VERS = 2.0
CREATION_DATE  = 
ORIGINATOR     = 

OBJECT_NAME    = SL-12 R/B(2)
OBJECT_ID      = 1985-042D
CENTER_NAME    = EARTH
REF_FRAME      = TEME
TIME_SYSTEM    = UTC
MEAN_ELEMENT_THEORY = SGP/SGP4

EPOCH          = 2026-02-23T11:23:26.940768
MEAN_MOTION    = 14.21978386
ECCENTRICITY   = .0034003
INCLINATION    = 71.1075
RA_OF_ASC_NODE = 117.7629
ARG_OF_PERICENTER = 151.2700
MEAN_ANOMALY   = 220.2197

EPHEMERIS_TYPE = 0
CLASSIFICATION_TYPE = U
NORAD_CAT_ID   = 15772
ELEMENT_SET_NO = 999
REV_AT_EPOCH   = 11237
BSTAR          = .51286E-4
MEAN_MOTION_DOT = .66E-6
MEAN_MOTION_DDOT = 0

CCSDS_OMM_VERS = 2.0
CREATION_DATE  = 
ORIGINATOR     = 

OBJECT_NAME    = SL-14 R/B
OBJECT_ID      = 1985-069B
CENTER_NAME    = EARTH
REF_FRAME      = TEME
TIME_SYSTEM    = UTC
MEAN_ELEMENT_THEORY = SGP/SGP4

EPOCH          = 2026-02-23T09:45:33.847200
MEAN_MOTION    = 14.86414438
ECCENTRICITY   = .0017388
INCLINATION    = 82.5256
RA_OF_ASC_NODE = 38.3643
ARG_OF_PERICENTER = 237.2320
MEAN_ANOMALY   = 122.7222

EPHEMERIS_TYPE = 0
CLASSIFICATION_TYPE = U
NORAD_CAT_ID   = 15945
ELEMENT_SET_NO = 999
REV_AT_EPOCH   = 17071
BSTAR          = .60429E-4
MEAN_MOTION_DOT = .559E-5
MEAN_MOTION_DDOT = 0

CCSDS_OMM_VERS = 2.0
CREATION_DATE  = 
ORIGINATOR     = 

OBJECT_NAME    = SL-16 R/B
OBJECT_ID      = 1985-097B
CENTER_NAME    = EARTH
REF_FRAME      = TEME
TIME_SYSTEM    = UTC
MEAN_ELEMENT_THEORY = SGP/SGP4

EPOCH          = 2026-02-23T06:59:26.787264
MEAN_MOTION    = 14.16596099
ECCENTRICITY   = .0009733
INCLINATION    = 71.0033
RA_OF_ASC_NODE = 170.8642
ARG_OF_PERICENTER = 276.1143
MEAN_ANOMALY   = 104.8256

EPHEMERIS_TYPE = 0
CLASSIFICATION_TYPE = U
NORAD_CAT_ID   = 16182
ELEMENT_SET_NO = 999
REV_AT_EPOCH   = 8519
BSTAR          = .15986E-3
MEAN_MOTION_DOT = .271E-5
MEAN_MOTION_DDOT = 0

CCSDS_OMM_VERS = 2.0
CREATION_DATE  = 
ORIGINATOR     = 

OBJECT_NAME    = SL-14 R/B
OBJECT_ID      = 1986-006B
CENTER_NAME    = EARTH
REF_FRAME      = TEME
TIME_SYSTEM    = UTC
MEAN_ELEMENT_THEORY = SGP/SGP4

EPOCH          = 2026-02-23T07:41:00.350016
MEAN_MOTION    = 14.86794508
ECCENTRICITY   = .0075647
INCLINATION    = 82.5241
RA_OF_ASC_NODE = 273.2644
ARG_OF_PERICENTER = 321.2940
MEAN_ANOMALY   = 38.2869

EPHEMERIS_TYPE = 0
CLASSIFICATION_TYPE = U
NORAD_CAT_ID   = 16496
ELEMENT_SET_NO = 999
REV_AT_EPOCH   = 14707
BSTAR          = .59646E-4
MEAN_MOTION_DOT = .585E-5
MEAN_MOTION_DDOT = 0

CCSDS_OMM_VERS = 2.0
CREATION_DATE  = 
ORIGINATOR     = 

OBJECT_NAME    = COSMOS 1743
OBJECT_ID      = 1986-034A
CENTER_NAME    = EARTH
REF_FRAME      = TEME
TIME_SYSTEM    = UTC
MEAN_ELEMENT_THEORY = SGP/SGP4

EPOCH          = 2026-02-23T12:17:08.255904
MEAN_MOTION    = 15.57444428
ECCENTRICITY   = .0003487
INCLINATION    = 82.5308
RA_OF_ASC_NODE = 88.6991
ARG_OF_PERICENTER = 7.4064
MEAN_ANOMALY   = 352.7242

EPHEMERIS_TYPE = 0
CLASSIFICATION_TYPE = U
NORAD_CAT_ID   = 16719
ELEMENT_SET_NO = 999
REV_AT_EPOCH   = 17804
BSTAR          = .53997E-3
MEAN_MOTION_DOT = .39774E-3
MEAN_MOTION_DDOT = 0

